start=new Date('2021-11-14T00:00:00.000Z').valueOf();
sats=[{"PERIAPSIS":"546.118","EPOCH":"2021-11-13T17:48:03.470112","CLASSIFICATION_TYPE":"U","TLE_LINE1":"1 48315U 21036AR  21317.74170683  .00001489  00000-0  11880-3 0  9996","MEAN_ANOMALY":"301.2085","DECAY_DATE":null,"CENTER_NAME":"EARTH","TIME_SYSTEM":"UTC","OBJECT_ID":"2021-036AR","MEAN_ELEMENT_THEORY":"SGP4","COUNTRY_CODE":"US","EPHEMERIS_TYPE":"0","MEAN_MOTION":"15.06402803","LAUNCH_DATE":"2021-04-29","OBJECT_NAME":"STARLINK-2506","RCS_SIZE":"LARGE","SEMIMAJOR_AXIS":"6925.340","BSTAR":"0.00011880000000","REV_AT_EPOCH":"3048","APOAPSIS":"548.292","INCLINATION":"53.0560","NORAD_CAT_ID":"48315","MEAN_MOTION_DDOT":"0.0000000000000","RA_OF_ASC_NODE":"330.8196","ECCENTRICITY":"0.00015700","REF_FRAME":"TEME","FILE":"3214514","SITE":"AFETR","ARG_OF_PERICENTER":"58.9058","ELEMENT_SET_NO":"999","TLE_LINE2":"2 48315  53.0560 330.8196 0001570  58.9058 301.2085 15.06402803 30483","PERIOD":"95.592","OBJECT_TYPE":"PAYLOAD","MEAN_MOTION_DOT":"0.00001489","GP_ID":"189712723"},{"ELEMENT_SET_NO":"999","ARG_OF_PERICENTER":"68.4846","PERIOD":"95.592","TLE_LINE2":"2 48316  53.0559 330.8396 0001472  68.4846 291.6300 15.06406886 30483","OBJECT_TYPE":"PAYLOAD","MEAN_MOTION_DOT":"-0.00000008","GP_ID":"189711471","ECCENTRICITY":"0.00014720","RA_OF_ASC_NODE":"330.8396","REF_FRAME":"TEME","FILE":"3214514","SITE":"AFETR","BSTAR":"0.00001835100000","REV_AT_EPOCH":"3048","APOAPSIS":"548.212","NORAD_CAT_ID":"48316","INCLINATION":"53.0559","MEAN_MOTION_DDOT":"0.0000000000000","LAUNCH_DATE":"2021-04-29","OBJECT_NAME":"STARLINK-2507","RCS_SIZE":"LARGE","SEMIMAJOR_AXIS":"6925.327","DECAY_DATE":null,"CENTER_NAME":"EARTH","TIME_SYSTEM":"UTC","OBJECT_ID":"2021-036AS","MEAN_ELEMENT_THEORY":"SGP4","COUNTRY_CODE":"US","EPHEMERIS_TYPE":"0","MEAN_MOTION":"15.06406886","EPOCH":"2021-11-13T17:42:44.447616","CLASSIFICATION_TYPE":"U","TLE_LINE1":"1 48316U 21036AS  21317.73801444 -.00000008  00000-0  18351-4 0  9990","MEAN_ANOMALY":"291.6300","PERIAPSIS":"546.173"},{"PERIAPSIS":"546.213","TLE_LINE1":"1 48317U 21036AT  21317.73435090 -.00000296  00000-0 -95681-6 0  9994","CLASSIFICATION_TYPE":"U","MEAN_ANOMALY":"299.3425","EPOCH":"2021-11-13T17:37:27.917760","OBJECT_ID":"2021-036AT","COUNTRY_CODE":"US","EPHEMERIS_TYPE":"0","MEAN_MOTION":"15.06402472","MEAN_ELEMENT_THEORY":"SGP4","CENTER_NAME":"EARTH","DECAY_DATE":null,"TIME_SYSTEM":"UTC","OBJECT_NAME":"STARLINK-2513","SEMIMAJOR_AXIS":"6925.341","RCS_SIZE":"LARGE","LAUNCH_DATE":"2021-04-29","INCLINATION":"53.0553","APOAPSIS":"548.199","NORAD_CAT_ID":"48317","MEAN_MOTION_DDOT":"0.0000000000000","BSTAR":"-0.00000095681000","REV_AT_EPOCH":"3048","FILE":"3214514","SITE":"AFETR","REF_FRAME":"TEME","RA_OF_ASC_NODE":"330.8525","ECCENTRICITY":"0.00014340","GP_ID":"189711721","TLE_LINE2":"2 48317  53.0553 330.8525 0001434  60.7707 299.3425 15.06402472 30481","PERIOD":"95.592","ELEMENT_SET_NO":"999","ARG_OF_PERICENTER":"60.7707","OBJECT_TYPE":"PAYLOAD","MEAN_MOTION_DOT":"-0.00000296"},{"GP_ID":"189712973","MEAN_MOTION_DOT":"-0.00000018","OBJECT_TYPE":"PAYLOAD","ARG_OF_PERICENTER":"65.4303","ELEMENT_SET_NO":"999","PERIOD":"95.592","TLE_LINE2":"2 48318  53.0542 340.2803 0001532  65.4303 294.6845 15.06405082 30368","REF_FRAME":"TEME","SITE":"AFETR","FILE":"3214514","ECCENTRICITY":"0.00015320","RA_OF_ASC_NODE":"340.2803","MEAN_MOTION_DDOT":"0.0000000000000","NORAD_CAT_ID":"48318","APOAPSIS":"548.259","INCLINATION":"53.0542","REV_AT_EPOCH":"3036","BSTAR":"0.00001767700000","SEMIMAJOR_AXIS":"6925.333","RCS_SIZE":"LARGE","OBJECT_NAME":"STARLINK-2509","LAUNCH_DATE":"2021-04-29","MEAN_ELEMENT_THEORY":"SGP4","COUNTRY_CODE":"US","EPHEMERIS_TYPE":"0","MEAN_MOTION":"15.06405082","OBJECT_ID":"2021-036AU","TIME_SYSTEM":"UTC","DECAY_DATE":null,"CENTER_NAME":"EARTH","MEAN_ANOMALY":"294.6845","CLASSIFICATION_TYPE":"U","TLE_LINE1":"1 48318U 21036AU  21317.85873479 -.00000018  00000-0  17677-4 0  9993","EPOCH":"2021-11-13T20:36:34.685856","PERIAPSIS":"546.137"},{"REV_AT_EPOCH":"3035","BSTAR":"0.00022512000000","MEAN_MOTION_DDOT":"0.0000000000000","APOAPSIS":"548.354","INCLINATION":"53.0538","NORAD_CAT_ID":"48319","MEAN_MOTION_DOT":"0.00003073","OBJECT_TYPE":"PAYLOAD","TLE_LINE2":"2 48319  53.0538 340.5999 0001662  62.1041 298.0116 15.06403314 30354","PERIOD":"95.592","ELEMENT_SET_NO":"999","ARG_OF_PERICENTER":"62.1041","GP_ID":"189713224","RA_OF_ASC_NODE":"340.5999","ECCENTRICITY":"0.00016620","FILE":"3214514","SITE":"AFETR","REF_FRAME":"TEME","EPOCH":"2021-11-13T18:55:43.509792","MEAN_ANOMALY":"298.0116","TLE_LINE1":"1 48319U 21036AV  21317.78869803  .00003073  00000-0  22512-3 0  9998","CLASSIFICATION_TYPE":"U","PERIAPSIS":"546.052","LAUNCH_DATE":"2021-04-29","SEMIMAJOR_AXIS":"6925.338","RCS_SIZE":"LARGE","OBJECT_NAME":"STARLINK-2512","TIME_SYSTEM":"UTC","CENTER_NAME":"EARTH","DECAY_DATE":null,"EPHEMERIS_TYPE":"0","COUNTRY_CODE":"US","MEAN_MOTION":"15.06403314","MEAN_ELEMENT_THEORY":"SGP4","OBJECT_ID":"2021-036AV"},{"RA_OF_ASC_NODE":"340.3083","ECCENTRICITY":"0.00015520","REF_FRAME":"TEME","SITE":"AFETR","FILE":"3214514","ELEMENT_SET_NO":"999","ARG_OF_PERICENTER":"63.9753","PERIOD":"95.592","TLE_LINE2":"2 48320  53.0550 340.3083 0001552  63.9753 296.1395 15.06400813 30369","MEAN_MOTION_DOT":"-0.00000008","OBJECT_TYPE":"PAYLOAD","GP_ID":"189711972","BSTAR":"0.00001837100000","REV_AT_EPOCH":"3036","APOAPSIS":"548.286","NORAD_CAT_ID":"48320","INCLINATION":"53.0550","MEAN_MOTION_DDOT":"0.0000000000000","DECAY_DATE":null,"CENTER_NAME":"EARTH","TIME_SYSTEM":"UTC","OBJECT_ID":"2021-036AW","MEAN_ELEMENT_THEORY":"SGP4","MEAN_MOTION":"15.06400813","COUNTRY_CODE":"US","EPHEMERIS_TYPE":"0","LAUNCH_DATE":"2021-04-29","OBJECT_NAME":"STARLINK-2029","SEMIMAJOR_AXIS":"6925.346","RCS_SIZE":"LARGE","PERIAPSIS":"546.136","EPOCH":"2021-11-13T20:25:57.671616","CLASSIFICATION_TYPE":"U","TLE_LINE1":"1 48320U 21036AW  21317.85136194 -.00000008  00000-0  18371-4 0  9993","MEAN_ANOMALY":"296.1395"},{"EPOCH":"2021-11-13T18:45:06.919776","TLE_LINE1":"1 48321U 21036AX  21317.78133009 -.00000144  00000-0  92205-5 0  9998","CLASSIFICATION_TYPE":"U","MEAN_ANOMALY":"298.5603","PERIAPSIS":"546.107","LAUNCH_DATE":"2021-04-29","OBJECT_NAME":"STARLINK-2457","RCS_SIZE":"LARGE","SEMIMAJOR_AXIS":"6925.342","CENTER_NAME":"EARTH","DECAY_DATE":null,"TIME_SYSTEM":"UTC","OBJECT_ID":"2021-036AX","COUNTRY_CODE":"US","EPHEMERIS_TYPE":"0","MEAN_MOTION":"15.06402185","MEAN_ELEMENT_THEORY":"SGP4","BSTAR":"0.00000922050000","REV_AT_EPOCH":"3035","APOAPSIS":"548.307","INCLINATION":"53.0557","NORAD_CAT_ID":"48321","MEAN_MOTION_DDOT":"0.0000000000000","TLE_LINE2":"2 48321  53.0557 340.6251 0001588  61.5546 298.5603 15.06402185 30351","PERIOD":"95.592","ARG_OF_PERICENTER":"61.5546","ELEMENT_SET_NO":"999","MEAN_MOTION_DOT":"-0.00000144","OBJECT_TYPE":"PAYLOAD","GP_ID":"189712222","RA_OF_ASC_NODE":"340.6251","ECCENTRICITY":"0.00015880","SITE":"AFETR","FILE":"3214514","REF_FRAME":"TEME"},{"BSTAR":"0.00023115000000","REV_AT_EPOCH":"3035","INCLINATION":"53.0549","APOAPSIS":"548.248","NORAD_CAT_ID":"48322","MEAN_MOTION_DDOT":"0.0000000000000","RA_OF_ASC_NODE":"340.6391","ECCENTRICITY":"0.00014980","REF_FRAME":"TEME","FILE":"3214514","SITE":"AFETR","ARG_OF_PERICENTER":"71.8471","ELEMENT_SET_NO":"999","PERIOD":"95.592","TLE_LINE2":"2 48322  53.0549 340.6391 0001498  71.8471 288.2681 15.06400956 30355","OBJECT_TYPE":"PAYLOAD","MEAN_MOTION_DOT":"0.00003163","GP_ID":"189712473","PERIAPSIS":"546.173","EPOCH":"2021-11-13T18:39:48.223008","CLASSIFICATION_TYPE":"U","TLE_LINE1":"1 48322U 21036AY  21317.77764147  .00003163  00000-0  23115-3 0  9996","MEAN_ANOMALY":"288.2681","DECAY_DATE":null,"CENTER_NAME":"EARTH","TIME_SYSTEM":"UTC","OBJECT_ID":"2021-036AY","MEAN_ELEMENT_THEORY":"SGP4","COUNTRY_CODE":"US","MEAN_MOTION":"15.06400956","EPHEMERIS_TYPE":"0","LAUNCH_DATE":"2021-04-29","OBJECT_NAME":"STARLINK-2477","SEMIMAJOR_AXIS":"6925.346","RCS_SIZE":"LARGE"},{"MEAN_MOTION_DOT":"-0.00000332","OBJECT_TYPE":"PAYLOAD","ARG_OF_PERICENTER":"69.1673","ELEMENT_SET_NO":"999","TLE_LINE2":"2 48323  53.0566 340.6671 0001319  69.1673 290.9457 15.06394490 30358","PERIOD":"95.592","GP_ID":"189712724","ECCENTRICITY":"0.00013190","RA_OF_ASC_NODE":"340.6671","REF_FRAME":"TEME","SITE":"AFETR","FILE":"3214514","REV_AT_EPOCH":"3035","BSTAR":"-0.00000343090000","MEAN_MOTION_DDOT":"0.0000000000000","INCLINATION":"53.0566","APOAPSIS":"548.144","NORAD_CAT_ID":"48323","LAUNCH_DATE":"2021-04-29","RCS_SIZE":"LARGE","SEMIMAJOR_AXIS":"6925.365","OBJECT_NAME":"STARLINK-2515","TIME_SYSTEM":"UTC","DECAY_DATE":null,"CENTER_NAME":"EARTH","MEAN_ELEMENT_THEORY":"SGP4","EPHEMERIS_TYPE":"0","COUNTRY_CODE":"US","MEAN_MOTION":"15.06394490","OBJECT_ID":"2021-036AZ","EPOCH":"2021-11-13T18:34:29.832096","MEAN_ANOMALY":"290.9457","CLASSIFICATION_TYPE":"U","TLE_LINE1":"1 48323U 21036AZ  21317.77395639 -.00000332  00000-0 -34309-5 0  9999","PERIAPSIS":"546.317"},{"MEAN_MOTION_DDOT":"0.0000000000000","NORAD_CAT_ID":"48324","APOAPSIS":"548.132","INCLINATION":"53.0558","REV_AT_EPOCH":"3034","BSTAR":"0.00017586000000","GP_ID":"189711472","MEAN_MOTION_DOT":"0.00002339","OBJECT_TYPE":"PAYLOAD","PERIOD":"95.592","TLE_LINE2":"2 48324  53.0558 340.6949 0001347  58.8570 301.2551 15.06404858 30340","ELEMENT_SET_NO":"999","ARG_OF_PERICENTER":"58.8570","SITE":"AFETR","FILE":"3214514","REF_FRAME":"TEME","RA_OF_ASC_NODE":"340.6949","ECCENTRICITY":"0.00013470","MEAN_ANOMALY":"301.2551","TLE_LINE1":"1 48324U 21036BA  21317.77026352  .00002339  00000-0  17586-3 0  9996","CLASSIFICATION_TYPE":"U","EPOCH":"2021-11-13T18:29:10.768128","PERIAPSIS":"546.266","SEMIMAJOR_AXIS":"6925.334","RCS_SIZE":"LARGE","OBJECT_NAME":"STARLINK-2527","LAUNCH_DATE":"2021-04-29","COUNTRY_CODE":"US","EPHEMERIS_TYPE":"0","MEAN_MOTION":"15.06404858","MEAN_ELEMENT_THEORY":"SGP4","OBJECT_ID":"2021-036BA","TIME_SYSTEM":"UTC","CENTER_NAME":"EARTH","DECAY_DATE":null}];
